{
  "type": "FeatureCollection",
  "features": [
    {
      "type": "Feature",
      "properties": {
        "norad_id": 66792,
        "name": "STARLINK-35990",
        "group": "last-30-days",
        "lat": -7.175444186507932,
        "lon": -162.18569131452992,
        "alt_km": 379.8101257496628,
        "timestamp": "2025-12-20T09:36:00.353148+00:00",
        "meta_object_name": "STARLINK-35990",
        "meta_object_id": "2025-278B",
        "meta_epoch": "2025-12-20T04:00:00.999072",
        "meta_mean_motion": 15.63895087,
        "meta_eccentricity": 0.0001529,
        "meta_inclination": 42.999,
        "meta_ra_of_asc_node": 206.9707,
        "meta_arg_of_pericenter": 274.4496,
        "meta_mean_anomaly": 200.2658,
        "meta_ephemeris_type": 0,
        "meta_classification_type": "U",
        "meta_norad_cat_id": 66792,
        "meta_element_set_no": 999,
        "meta_rev_at_epoch": 415,
        "meta_bstar": -0.023029,
        "meta_mean_motion_dot": -0.01962653,
        "meta_mean_motion_ddot": 0,
        "tle_line1": "1 66792U 25278B   25354.16667823 -.01962653  00000+0 -23029-1 0  9992",
        "tle_line2": "2 66792  42.9990 206.9707 0001529 274.4496 200.2658 15.63895087  4154"
      },
      "geometry": {
        "type": "Point",
        "coordinates": [
          -162.18569131452992,
          -7.175444186507932
        ]
      }
    },
    {
      "type": "Feature",
      "properties": {
        "norad_id": 66793,
        "name": "STARLINK-36051",
        "group": "last-30-days",
        "lat": -4.5783162277046365,
        "lon": -159.3606669064162,
        "alt_km": 379.6129230464767,
        "timestamp": "2025-12-20T09:36:00.353158+00:00",
        "meta_object_name": "STARLINK-36051",
        "meta_object_id": "2025-278C",
        "meta_epoch": "2025-12-20T04:00:00.999072",
        "meta_mean_motion": 15.63895453,
        "meta_eccentricity": 0.0001552,
        "meta_inclination": 42.9992,
        "meta_ra_of_asc_node": 206.9608,
        "meta_arg_of_pericenter": 272.6938,
        "meta_mean_anomaly": 205.855,
        "meta_ephemeris_type": 0,
        "meta_classification_type": "U",
        "meta_norad_cat_id": 66793,
        "meta_element_set_no": 999,
        "meta_rev_at_epoch": 405,
        "meta_bstar": -0.023049,
        "meta_mean_motion_dot": -0.01964183,
        "meta_mean_motion_ddot": 0,
        "tle_line1": "1 66793U 25278C   25354.16667823 -.01964183  00000+0 -23049-1 0  9995",
        "tle_line2": "2 66793  42.9992 206.9608 0001552 272.6938 205.8550 15.63895453  4052"
      },
      "geometry": {
        "type": "Point",
        "coordinates": [
          -159.3606669064162,
          -4.5783162277046365
        ]
      }
    },
    {
      "type": "Feature",
      "properties": {
        "norad_id": 66794,
        "name": "STARLINK-36062",
        "group": "last-30-days",
        "lat": -5.87868895103852,
        "lon": -160.7704721937982,
        "alt_km": 379.66838901802566,
        "timestamp": "2025-12-20T09:36:00.353170+00:00",
        "meta_object_name": "STARLINK-36062",
        "meta_object_id": "2025-278D",
        "meta_epoch": "2025-12-20T04:00:00.999072",
        "meta_mean_motion": 15.63899349,
        "meta_eccentricity": 0.0001532,
        "meta_inclination": 42.9994,
        "meta_ra_of_asc_node": 206.9651,
        "meta_arg_of_pericenter": 275.6138,
        "meta_mean_anomaly": 201.0165,
        "meta_ephemeris_type": 0,
        "meta_classification_type": "U",
        "meta_norad_cat_id": 66794,
        "meta_element_set_no": 999,
        "meta_rev_at_epoch": 415,
        "meta_bstar": -0.023106,
        "meta_mean_motion_dot": -0.01968701,
        "meta_mean_motion_ddot": 0,
        "tle_line1": "1 66794U 25278D   25354.16667823 -.01968701  00000+0 -23106-1 0  9990",
        "tle_line2": "2 66794  42.9994 206.9651 0001532 275.6138 201.0165 15.63899349  4155"
      },
      "geometry": {
        "type": "Point",
        "coordinates": [
          -160.7704721937982,
          -5.87868895103852
        ]
      }
    },
    {
      "type": "Feature",
      "properties": {
        "norad_id": 66795,
        "name": "STARLINK-36047",
        "group": "last-30-days",
        "lat": -3.2756271843553866,
        "lon": -157.95656939835717,
        "alt_km": 379.46632140885686,
        "timestamp": "2025-12-20T09:36:00.353180+00:00",
        "meta_object_name": "STARLINK-36047",
        "meta_object_id": "2025-278E",
        "meta_epoch": "2025-12-20T04:00:00.999072",
        "meta_mean_motion": 15.63893889,
        "meta_eccentricity": 0.0001493,
        "meta_inclination": 42.999,
        "meta_ra_of_asc_node": 206.9564,
        "meta_arg_of_pericenter": 274.0646,
        "meta_mean_anomaly": 206.4012,
        "meta_ephemeris_type": 0,
        "meta_classification_type": "U",
        "meta_norad_cat_id": 66795,
        "meta_element_set_no": 999,
        "meta_rev_at_epoch": 405,
        "meta_bstar": -0.022988,
        "meta_mean_motion_dot": -0.01959423,
        "meta_mean_motion_ddot": 0,
        "tle_line1": "1 66795U 25278E   25354.16667823 -.01959423  00000+0 -22988-1 0  9999",
        "tle_line2": "2 66795  42.9990 206.9564 0001493 274.0646 206.4012 15.63893889  4050"
      },
      "geometry": {
        "type": "Point",
        "coordinates": [
          -157.95656939835717,
          -3.2756271843553866
        ]
      }
    },
    {
      "type": "Feature",
      "properties": {
        "norad_id": 66796,
        "name": "STARLINK-35964",
        "group": "last-30-days",
        "lat": -37.13151651875195,
        "lon": 78.39647317422617,
        "alt_km": 330.1127933224525,
        "timestamp": "2025-12-20T09:36:00.353190+00:00",
        "meta_object_name": "STARLINK-35964",
        "meta_object_id": "2025-278F",
        "meta_epoch": "2025-12-20T00:00:02.000160",
        "meta_mean_motion": 15.80836058,
        "meta_eccentricity": 0.0001531,
        "meta_inclination": 42.9922,
        "meta_ra_of_asc_node": 206.4774,
        "meta_arg_of_pericenter": 267.9321,
        "meta_mean_anomaly": 215.2209,
        "meta_ephemeris_type": 0,
        "meta_classification_type": "U",
        "meta_norad_cat_id": 66796,
        "meta_element_set_no": 999,
        "meta_rev_at_epoch": 396,
        "meta_bstar": 0.00035277,
        "meta_mean_motion_dot": 0.00070367,
        "meta_mean_motion_ddot": 0,
        "tle_line1": "1 66796U 25278F   25354.00002315  .00070367  00000+0  35277-3 0  9997",
        "tle_line2": "2 66796  42.9922 206.4774 0001531 267.9321 215.2209 15.80836058  3967"
      },
      "geometry": {
        "type": "Point",
        "coordinates": [
          78.39647317422617,
          -37.13151651875195
        ]
      }
    },
    {
      "type": "Feature",
      "properties": {
        "norad_id": 66797,
        "name": "STARLINK-36099",
        "group": "last-30-days",
        "lat": -0.6623353460348913,
        "lon": -155.1561190648463,
        "alt_km": 379.19320460882045,
        "timestamp": "2025-12-20T09:36:00.353203+00:00",
        "meta_object_name": "STARLINK-36099",
        "meta_object_id": "2025-278G",
        "meta_epoch": "2025-12-20T04:00:00.999072",
        "meta_mean_motion": 15.63895078,
        "meta_eccentricity": 0.0001504,
        "meta_inclination": 42.9992,
        "meta_ra_of_asc_node": 206.9463,
        "meta_arg_of_pericenter": 275.0322,
        "meta_mean_anomaly": 209.2699,
        "meta_ephemeris_type": 0,
        "meta_classification_type": "U",
        "meta_norad_cat_id": 66797,
        "meta_element_set_no": 999,
        "meta_rev_at_epoch": 421,
        "meta_bstar": -0.023059,
        "meta_mean_motion_dot": -0.01964835,
        "meta_mean_motion_ddot": 0,
        "tle_line1": "1 66797U 25278G   25354.16667823 -.01964835  00000+0 -23059-1 0  9994",
        "tle_line2": "2 66797  42.9992 206.9463 0001504 275.0322 209.2699 15.63895078  4219"
      },
      "geometry": {
        "type": "Point",
        "coordinates": [
          -155.1561190648463,
          -0.6623353460348913
        ]
      }
    },
    {
      "type": "Feature",
      "properties": {
        "norad_id": 66798,
        "name": "STARLINK-36041",
        "group": "last-30-days",
        "lat": 0.6420963815358613,
        "lon": -153.76084397477086,
        "alt_km": 379.0521059220564,
        "timestamp": "2025-12-20T09:36:00.353213+00:00",
        "meta_object_name": "STARLINK-36041",
        "meta_object_id": "2025-278H",
        "meta_epoch": "2025-12-20T04:00:00.999072",
        "meta_mean_motion": 15.63895673,
        "meta_eccentricity": 0.0001509,
        "meta_inclination": 42.9989,
        "meta_ra_of_asc_node": 206.9416,
        "meta_arg_of_pericenter": 274.9517,
        "meta_mean_anomaly": 211.262,
        "meta_ephemeris_type": 0,
        "meta_classification_type": "U",
        "meta_norad_cat_id": 66798,
        "meta_element_set_no": 999,
        "meta_rev_at_epoch": 399,
        "meta_bstar": -0.023003,
        "meta_mean_motion_dot": -0.01960712,
        "meta_mean_motion_ddot": 0,
        "tle_line1": "1 66798U 25278H   25354.16667823 -.01960712  00000+0 -23003-1 0  9994",
        "tle_line2": "2 66798  42.9989 206.9416 0001509 274.9517 211.2620 15.63895673  3995"
      },
      "geometry": {
        "type": "Point",
        "coordinates": [
          -153.76084397477086,
          0.6420963815358613
        ]
      }
    }
  ]
}